[{"OBJECT_NAME":"STARLINK-6328","OBJECT_ID":"2023-065W","EPOCH":"2026-03-09T10:53:54.289248","MEAN_MOTION":15.02525734,"ECCENTRICITY":0.00016258,"INCLINATION":43.004,"RA_OF_ASC_NODE":211.2412,"ARG_OF_PERICENTER":260.5459,"MEAN_ANOMALY":99.52,"EPHEMERIS_TYPE":0,"CLASSIFICATION_TYPE":"U","NORAD_CAT_ID":56523,"ELEMENT_SET_NO":999,"REV_AT_EPOCH":15659,"BSTAR":0.00014448972,"MEAN_MOTION_DOT":1.748e-5,"MEAN_MOTION_DDOT":0},{"OBJECT_NAME":"CZ-6A DEB","OBJECT_ID":"2022-151VS","EPOCH":"2026-03-09T04:51:15.060960","MEAN_MOTION":14.9137966,"ECCENTRICITY":0.00559122,"INCLINATION":98.6335,"RA_OF_ASC_NODE":146.9052,"ARG_OF_PERICENTER":180.6585,"MEAN_ANOMALY":179.4567,"EPHEMERIS_TYPE":0,"CLASSIFICATION_TYPE":"U","NORAD_CAT_ID":55201,"ELEMENT_SET_NO":999,"REV_AT_EPOCH":17149,"BSTAR":0.0042126159,"MEAN_MOTION_DOT":0.00043496,"MEAN_MOTION_DDOT":0}]
